FENGYUN 1C DEB          
1 30938U 99025BAC 17345.60800913  .00000154  00000-0  98427-4 0  9999
2 30938  98.8716  12.0011 0048718  86.4502  32.3051 14.16454451557109
